SPACEMOBILE-006         
1 67232U 25309A   25360.75210442  .00001165  00000+0  72651-4 0  9997
2 67232  53.0002  40.8851 0010477 329.2446  30.7932 15.17699903   405
LVM3 R/B                
1 67233U 25309B   26004.69490181  .00001492  00000+0  84366-4 0  9996
2 67233  52.9311 359.6732 0010755  22.9748 337.1724 15.19528008  1769
2025-310A               
1 67234U 25310A   25363.31529613  .00002994  00000+0  13914-3 0  9996
2 67234  97.9657   8.0673 0151612  68.9370 292.7996 15.11153747   571
SL-4 R/B                
1 67235U 25310B   26003.94447987  .00140396  22581-5  32154-3 0  9991
2 67235  97.9682  14.4459 0289810  42.4929 319.8363 15.52535072  1459
FENGYUN 4C              
1 67246U 25312A   25360.90857406  .00039214  41525-6  21251-2 0  9998
2 67246  28.4641 334.3215 7309751 179.7824 181.1675  2.27841578    17
CZ-3B R/B               
1 67247U 25312B   26005.06186920  .00142550  10899-5  52860-3 0  9997
2 67247  28.4298 330.6696 7230710 184.9110 159.3192  2.40604938   228
TIANHUI 7               
1 67300U 25314A   26004.66312080  .00002989  00000+0  12152-3 0  9990
2 67300  97.4211  81.8359 0001295 114.5858 245.5515 15.25326219   851
CZ-4B R/B               
1 67301U 25314B   26004.64854008  .00083345  40928-5  42806-3 0  9993
2 67301  97.3762  82.1203 0146802 358.9578   1.1354 15.67175505   821
2025-315A               
1 67302U 25315A   25365.60681806  .00007587  00000+0  11168-2 0  9995
2 67302  19.4941 100.4624 7295759 180.0324 168.0161  2.27863390    22
CZ-7A R/B               
1 67303U 25315B   25365.17922199  .00041123  76302-6  12201-2 0  9999
2 67303  19.7725 100.7388 7234083 178.7114 185.5568  2.38363488    20
CSG-3                   
1 67304U 26001A   26005.22876678  .00000857  00000+0  11582-3 0  9997
2 67304  97.8602 191.2993 0003661 169.5839 190.5451 14.81518982   322
